start=new Date('2022-10-31T00:00:00.000Z').valueOf();
sats=[{"SITE":"AFETR","ELEMENT_SET_NO":"999","MEAN_MOTION":"15.06394031","LAUNCH_DATE":"2021-04-29","TIME_SYSTEM":"UTC","REV_AT_EPOCH":"8327","OBJECT_NAME":"STARLINK-2501","NORAD_CAT_ID":"48330","APOAPSIS":"548.300","SEMIMAJOR_AXIS":"6925.367","EPOCH":"2022-10-30T20:32:36.513888","CLASSIFICATION_TYPE":"U","OBJECT_TYPE":"PAYLOAD","OBJECT_ID":"2021-036BG","DECAY_DATE":null,"BSTAR":"-0.00002945200000","REF_FRAME":"TEME","ECCENTRICITY":"0.00015430","MEAN_MOTION_DOT":"-0.00000720","MEAN_MOTION_DDOT":"0.0000000000000","RCS_SIZE":"LARGE","PERIAPSIS":"546.163","EPHEMERIS_TYPE":"0","ARG_OF_PERICENTER":"68.7080","MEAN_ELEMENT_THEORY":"SGP4","PERIOD":"95.593","MEAN_ANOMALY":"291.4074","INCLINATION":"53.0550","CENTER_NAME":"EARTH","FILE":"3637924","GP_ID":"216527319","COUNTRY_CODE":"US","TLE_LINE2":"2 48330  53.0550 204.6078 0001543  68.7080 291.4074 15.06394031 83276","TLE_LINE1":"1 48330U 21036BG  22303.85597817 -.00000720  00000-0 -29452-4 0  9997","RA_OF_ASC_NODE":"204.6078"},{"APOAPSIS":"548.339","NORAD_CAT_ID":"48331","REV_AT_EPOCH":"8327","OBJECT_NAME":"STARLINK-2514","SITE":"AFETR","ELEMENT_SET_NO":"999","MEAN_MOTION":"15.06390537","LAUNCH_DATE":"2021-04-29","TIME_SYSTEM":"UTC","BSTAR":"-0.00002170300000","OBJECT_ID":"2021-036BH","DECAY_DATE":null,"CLASSIFICATION_TYPE":"U","OBJECT_TYPE":"PAYLOAD","SEMIMAJOR_AXIS":"6925.378","EPOCH":"2022-10-30T20:27:18.525600","PERIOD":"95.593","INCLINATION":"53.0545","MEAN_ANOMALY":"305.3115","CENTER_NAME":"EARTH","ARG_OF_PERICENTER":"54.8022","EPHEMERIS_TYPE":"0","MEAN_ELEMENT_THEORY":"SGP4","ECCENTRICITY":"0.00015830","MEAN_MOTION_DDOT":"0.0000000000000","MEAN_MOTION_DOT":"-0.00000605","RCS_SIZE":"LARGE","PERIAPSIS":"546.146","REF_FRAME":"TEME","RA_OF_ASC_NODE":"204.6225","TLE_LINE1":"1 48331U 21036BH  22303.85229775 -.00000605  00000-0 -21703-4 0  9996","FILE":"3637924","GP_ID":"216528069","COUNTRY_CODE":"US","TLE_LINE2":"2 48331  53.0545 204.6225 0001583  54.8022 305.3115 15.06390537 83279"},{"NORAD_CAT_ID":"48332","APOAPSIS":"548.275","ELEMENT_SET_NO":"999","SITE":"AFETR","MEAN_MOTION":"15.06398537","TIME_SYSTEM":"UTC","LAUNCH_DATE":"2021-04-29","REV_AT_EPOCH":"8325","OBJECT_NAME":"STARLINK-2511","OBJECT_ID":"2021-036BJ","DECAY_DATE":null,"BSTAR":"0.00005675200000","SEMIMAJOR_AXIS":"6925.353","EPOCH":"2022-10-30T17:14:53.368800","OBJECT_TYPE":"PAYLOAD","CLASSIFICATION_TYPE":"U","EPHEMERIS_TYPE":"0","ARG_OF_PERICENTER":"64.1724","MEAN_ELEMENT_THEORY":"SGP4","INCLINATION":"53.0554","PERIOD":"95.592","MEAN_ANOMALY":"295.9422","CENTER_NAME":"EARTH","REF_FRAME":"TEME","ECCENTRICITY":"0.00015260","RCS_SIZE":"LARGE","PERIAPSIS":"546.161","MEAN_MOTION_DDOT":"0.0000000000000","MEAN_MOTION_DOT":"0.00000564","RA_OF_ASC_NODE":"205.2011","FILE":"3637924","COUNTRY_CODE":"US","TLE_LINE2":"2 48332  53.0554 205.2011 0001526  64.1724 295.9422 15.06398537 83251","GP_ID":"216528815","TLE_LINE1":"1 48332U 21036BJ  22303.71867325  .00000564  00000-0  56752-4 0  9995"},{"TLE_LINE1":"1 48333U 21036BK  22303.91126797 -.00000392  00000-0 -74030-5 0  9990","COUNTRY_CODE":"US","TLE_LINE2":"2 48333  53.0560 204.3547 0001509  54.0034 306.1095 15.06395821 83283","GP_ID":"216529059","FILE":"3637924","RA_OF_ASC_NODE":"204.3547","PERIAPSIS":"546.181","RCS_SIZE":"LARGE","MEAN_MOTION_DDOT":"0.0000000000000","MEAN_MOTION_DOT":"-0.00000392","ECCENTRICITY":"0.00015090","REF_FRAME":"TEME","CENTER_NAME":"EARTH","PERIOD":"95.592","INCLINATION":"53.0560","MEAN_ANOMALY":"306.1095","MEAN_ELEMENT_THEORY":"SGP4","EPHEMERIS_TYPE":"0","ARG_OF_PERICENTER":"54.0034","OBJECT_TYPE":"PAYLOAD","CLASSIFICATION_TYPE":"U","EPOCH":"2022-10-30T21:52:13.552608","SEMIMAJOR_AXIS":"6925.361","BSTAR":"-0.00000740300000","DECAY_DATE":null,"OBJECT_ID":"2021-036BK","OBJECT_NAME":"STARLINK-2518","REV_AT_EPOCH":"8328","TIME_SYSTEM":"UTC","LAUNCH_DATE":"2021-04-29","SITE":"AFETR","MEAN_MOTION":"15.06395821","ELEMENT_SET_NO":"999","APOAPSIS":"548.271","NORAD_CAT_ID":"48333"},{"REV_AT_EPOCH":"8328","OBJECT_NAME":"STARLINK-2470","SITE":"AFETR","MEAN_MOTION":"15.06397240","ELEMENT_SET_NO":"999","TIME_SYSTEM":"UTC","LAUNCH_DATE":"2021-04-29","APOAPSIS":"548.081","NORAD_CAT_ID":"48334","OBJECT_TYPE":"PAYLOAD","CLASSIFICATION_TYPE":"U","SEMIMAJOR_AXIS":"6925.357","EPOCH":"2022-10-30T21:46:55.401888","BSTAR":"-0.00001138200000","OBJECT_ID":"2021-036BL","DECAY_DATE":null,"ECCENTRICITY":"0.00012400","RCS_SIZE":"LARGE","PERIAPSIS":"546.363","MEAN_MOTION_DDOT":"0.0000000000000","MEAN_MOTION_DOT":"-0.00000451","REF_FRAME":"TEME","PERIOD":"95.592","MEAN_ANOMALY":"273.5828","INCLINATION":"53.0550","CENTER_NAME":"EARTH","EPHEMERIS_TYPE":"0","ARG_OF_PERICENTER":"86.5303","MEAN_ELEMENT_THEORY":"SGP4","TLE_LINE1":"1 48334U 21036BL  22303.90758567 -.00000451  00000-0 -11382-4 0  9992","FILE":"3637924","TLE_LINE2":"2 48334  53.0550 204.3593 0001240  86.5303 273.5828 15.06397240 83283","COUNTRY_CODE":"US","GP_ID":"216527819","RA_OF_ASC_NODE":"204.3593"},{"ARG_OF_PERICENTER":"71.9272","EPHEMERIS_TYPE":"0","MEAN_ELEMENT_THEORY":"SGP4","PERIOD":"95.593","INCLINATION":"53.0551","MEAN_ANOMALY":"288.1886","CENTER_NAME":"EARTH","REF_FRAME":"TEME","ECCENTRICITY":"0.00015580","MEAN_MOTION_DDOT":"0.0000000000000","MEAN_MOTION_DOT":"-0.00000169","PERIAPSIS":"546.156","RCS_SIZE":"LARGE","RA_OF_ASC_NODE":"204.3916","FILE":"3637924","GP_ID":"216527570","COUNTRY_CODE":"US","TLE_LINE2":"2 48335  53.0551 204.3916 0001558  71.9272 288.1886 15.06392926 83281","TLE_LINE1":"1 48335U 21036BM  22303.90390120 -.00000169  00000-0  75530-5 0  9991","NORAD_CAT_ID":"48335","APOAPSIS":"548.314","ELEMENT_SET_NO":"999","SITE":"AFETR","MEAN_MOTION":"15.06392926","LAUNCH_DATE":"2021-04-29","TIME_SYSTEM":"UTC","REV_AT_EPOCH":"8328","OBJECT_NAME":"STARLINK-2441","OBJECT_ID":"2021-036BM","DECAY_DATE":null,"BSTAR":"0.00000755300000","SEMIMAJOR_AXIS":"6925.370","EPOCH":"2022-10-30T21:41:37.063680","CLASSIFICATION_TYPE":"U","OBJECT_TYPE":"PAYLOAD"},{"RA_OF_ASC_NODE":"105.2588","GP_ID":"216528817","TLE_LINE2":"2 48353  53.0545 105.2588 0001240 110.2678 249.8444 15.06401693 82244","COUNTRY_CODE":"US","FILE":"3637924","TLE_LINE1":"1 48353U 21038A   22303.71039918 -.00000949  00000-0 -44850-4 0  9994","MEAN_ELEMENT_THEORY":"SGP4","ARG_OF_PERICENTER":"110.2678","EPHEMERIS_TYPE":"0","CENTER_NAME":"EARTH","PERIOD":"95.592","INCLINATION":"53.0545","MEAN_ANOMALY":"249.8444","REF_FRAME":"TEME","MEAN_MOTION_DOT":"-0.00000949","MEAN_MOTION_DDOT":"0.0000000000000","RCS_SIZE":"LARGE","PERIAPSIS":"546.350","ECCENTRICITY":"0.00012400","DECAY_DATE":null,"OBJECT_ID":"2021-038A","BSTAR":"-0.00004485000000","EPOCH":"2022-10-30T17:02:58.489152","SEMIMAJOR_AXIS":"6925.343","CLASSIFICATION_TYPE":"U","OBJECT_TYPE":"PAYLOAD","NORAD_CAT_ID":"48353","APOAPSIS":"548.067","LAUNCH_DATE":"2021-05-04","TIME_SYSTEM":"UTC","SITE":"AFETR","MEAN_MOTION":"15.06401693","ELEMENT_SET_NO":"999","OBJECT_NAME":"STARLINK-2613","REV_AT_EPOCH":"8224"},{"OBJECT_NAME":"STARLINK-2674","REV_AT_EPOCH":"8226","TIME_SYSTEM":"UTC","LAUNCH_DATE":"2021-05-04","SITE":"AFETR","MEAN_MOTION":"15.06393705","ELEMENT_SET_NO":"999","APOAPSIS":"548.351","NORAD_CAT_ID":"48354","OBJECT_TYPE":"PAYLOAD","CLASSIFICATION_TYPE":"U","EPOCH":"2022-10-30T20:08:44.837376","SEMIMAJOR_AXIS":"6925.368","BSTAR":"0.00003896300000","DECAY_DATE":null,"OBJECT_ID":"2021-038B","PERIAPSIS":"546.115","RCS_SIZE":"LARGE","MEAN_MOTION_DOT":"0.00000299","MEAN_MOTION_DDOT":"0.0000000000000","ECCENTRICITY":"0.00016140","REF_FRAME":"TEME","CENTER_NAME":"EARTH","MEAN_ANOMALY":"244.8160","PERIOD":"95.593","INCLINATION":"53.0521","MEAN_ELEMENT_THEORY":"SGP4","EPHEMERIS_TYPE":"0","ARG_OF_PERICENTER":"115.2996","TLE_LINE1":"1 48354U 21038B   22303.83940784  .00000299  00000-0  38963-4 0  9994","TLE_LINE2":"2 48354  53.0521 104.6808 0001614 115.2996 244.8160 15.06393705 82266","COUNTRY_CODE":"US","GP_ID":"216529061","FILE":"3637924","RA_OF_ASC_NODE":"104.6808"},{"RA_OF_ASC_NODE":"104.7000","TLE_LINE1":"1 48355U 21038C   22303.83572395  .00010485  00000-0  72251-3 0  9999","FILE":"3637924","GP_ID":"216527821","TLE_LINE2":"2 48355  53.0554 104.7000 0001663  99.0778 261.0399 15.06359432 82263","COUNTRY_CODE":"US","PERIOD":"95.595","MEAN_ANOMALY":"261.0399","INCLINATION":"53.0554","CENTER_NAME":"EARTH","EPHEMERIS_TYPE":"0","ARG_OF_PERICENTER":"99.0778","MEAN_ELEMENT_THEORY":"SGP4","ECCENTRICITY":"0.00016630","MEAN_MOTION_DDOT":"0.0000000000000","MEAN_MOTION_DOT":"0.00010485","PERIAPSIS":"546.186","RCS_SIZE":"LARGE","REF_FRAME":"TEME","BSTAR":"0.00072251000000","OBJECT_ID":"2021-038C","DECAY_DATE":null,"CLASSIFICATION_TYPE":"U","OBJECT_TYPE":"PAYLOAD","SEMIMAJOR_AXIS":"6925.473","EPOCH":"2022-10-30T20:03:26.549280","APOAPSIS":"548.490","NORAD_CAT_ID":"48355","REV_AT_EPOCH":"8226","OBJECT_NAME":"STARLINK-2635","SITE":"AFETR","ELEMENT_SET_NO":"999","MEAN_MOTION":"15.06359432","LAUNCH_DATE":"2021-05-04","TIME_SYSTEM":"UTC"},{"OBJECT_NAME":"STARLINK-2637","REV_AT_EPOCH":"8225","TIME_SYSTEM":"UTC","LAUNCH_DATE":"2021-05-04","SITE":"AFETR","ELEMENT_SET_NO":"999","MEAN_MOTION":"15.06410133","APOAPSIS":"548.046","NORAD_CAT_ID":"48356","OBJECT_TYPE":"PAYLOAD","CLASSIFICATION_TYPE":"U","EPOCH":"2022-10-30T18:22:35.118336","SEMIMAJOR_AXIS":"6925.318","BSTAR":"0.00000133020000","DECAY_DATE":null,"OBJECT_ID":"2021-038D","PERIAPSIS":"546.319","RCS_SIZE":"LARGE","MEAN_MOTION_DDOT":"0.0000000000000","MEAN_MOTION_DOT":"-0.00000262","ECCENTRICITY":"0.00012470","REF_FRAME":"TEME","CENTER_NAME":"EARTH","INCLINATION":"53.0553","PERIOD":"95.591","MEAN_ANOMALY":"258.1874","MEAN_ELEMENT_THEORY":"SGP4","EPHEMERIS_TYPE":"0","ARG_OF_PERICENTER":"101.9255","TLE_LINE1":"1 48356U 21038D   22303.76568424 -.00000262  00000-0  13302-5 0  9997","TLE_LINE2":"2 48356  53.0553 104.9929 0001247 101.9255 258.1874 15.06410133 82256","COUNTRY_CODE":"US","GP_ID":"216527572","FILE":"3637924","RA_OF_ASC_NODE":"104.9929"}];
